{
  "type": "FeatureCollection",
  "features": [
    {
      "type": "Feature",
      "properties": {
        "norad_id": 37089,
        "name": "COSMOS 2251 DEB",
        "group": "cosmos-2251-debris",
        "lat": 62.10485134670477,
        "lon": -167.8205766987465,
        "alt_km": 803.9707489750735,
        "timestamp": "2025-12-05T11:32:56.414722+00:00",
        "meta_object_name": "COSMOS 2251 DEB",
        "meta_object_id": "1993-036BFK",
        "meta_epoch": "2025-11-27T19:45:58.315104",
        "meta_mean_motion": 14.52523041,
        "meta_eccentricity": 0.0136019,
        "meta_inclination": 74.0379,
        "meta_ra_of_asc_node": 173.8866,
        "meta_arg_of_pericenter": 277.3049,
        "meta_mean_anomaly": 81.267,
        "meta_ephemeris_type": 0,
        "meta_classification_type": "U",
        "meta_norad_cat_id": 37089,
        "meta_element_set_no": 999,
        "meta_rev_at_epoch": 65893,
        "meta_bstar": 0.0020033475,
        "meta_mean_motion_dot": 9.221e-05,
        "meta_mean_motion_ddot": 0,
        "tle_line1": "1 37089U 93036BFK 25331.82359161  .00009221  00000+0  20033-2 0  9990",
        "tle_line2": "2 37089  74.0379 173.8866 0136019 277.3049  81.2670 14.52523041658932"
      },
      "geometry": {
        "type": "Point",
        "coordinates": [
          -167.8205766987465,
          62.10485134670477
        ]
      }
    },
    {
      "type": "Feature",
      "properties": {
        "norad_id": 37094,
        "name": "COSMOS 2251 DEB",
        "group": "cosmos-2251-debris",
        "lat": -43.72789385937647,
        "lon": -29.71634025654608,
        "alt_km": 804.8380735472747,
        "timestamp": "2025-12-05T11:32:56.414732+00:00",
        "meta_object_name": "COSMOS 2251 DEB",
        "meta_object_id": "1993-036BFQ",
        "meta_epoch": "2025-12-01T04:38:30.122016",
        "meta_mean_motion": 14.37719988,
        "meta_eccentricity": 0.0084296,
        "meta_inclination": 74.1075,
        "meta_ra_of_asc_node": 142.3264,
        "meta_arg_of_pericenter": 111.6851,
        "meta_mean_anomaly": 249.3305,
        "meta_ephemeris_type": 0,
        "meta_classification_type": "U",
        "meta_norad_cat_id": 37094,
        "meta_element_set_no": 999,
        "meta_rev_at_epoch": 84340,
        "meta_bstar": 0.0011679,
        "meta_mean_motion_dot": 3.636e-05,
        "meta_mean_motion_ddot": 0,
        "tle_line1": "1 37094U 93036BFQ 25335.19340419  .00003636  00000+0  11679-2 0  9996",
        "tle_line2": "2 37094  74.1075 142.3264 0084296 111.6851 249.3305 14.37719988843405"
      },
      "geometry": {
        "type": "Point",
        "coordinates": [
          -29.71634025654608,
          -43.72789385937647
        ]
      }
    },
    {
      "type": "Feature",
      "properties": {
        "norad_id": 37095,
        "name": "COSMOS 2251 DEB",
        "group": "cosmos-2251-debris",
        "lat": -24.64819734822762,
        "lon": -164.94497706712335,
        "alt_km": 842.5638998565482,
        "timestamp": "2025-12-05T11:32:56.414742+00:00",
        "meta_object_name": "COSMOS 2251 DEB",
        "meta_object_id": "1993-036BFR",
        "meta_epoch": "2025-12-02T08:23:30.966144",
        "meta_mean_motion": 14.03314809,
        "meta_eccentricity": 0.01958196,
        "meta_inclination": 73.8483,
        "meta_ra_of_asc_node": 208.2093,
        "meta_arg_of_pericenter": 267.7854,
        "meta_mean_anomaly": 90.0848,
        "meta_ephemeris_type": 0,
        "meta_classification_type": "U",
        "meta_norad_cat_id": 37095,
        "meta_element_set_no": 999,
        "meta_rev_at_epoch": 62490,
        "meta_bstar": 0.0015878918,
        "meta_mean_motion_dot": 2.912e-05,
        "meta_mean_motion_ddot": 0,
        "tle_line1": "1 37095U 93036BFR 25336.34966396  .00002912  00000+0  15879-2 0  9995",
        "tle_line2": "2 37095  73.8483 208.2093 0195819 267.7854  90.0848 14.03314809624908"
      },
      "geometry": {
        "type": "Point",
        "coordinates": [
          -164.94497706712335,
          -24.64819734822762
        ]
      }
    },
    {
      "type": "Feature",
      "properties": {
        "norad_id": 37108,
        "name": "COSMOS 2251 DEB",
        "group": "cosmos-2251-debris",
        "lat": 67.90196850388378,
        "lon": -130.80780517574007,
        "alt_km": 721.2383132126224,
        "timestamp": "2025-12-05T11:32:56.414752+00:00",
        "meta_object_name": "COSMOS 2251 DEB",
        "meta_object_id": "1993-036BGE",
        "meta_epoch": "2025-12-02T08:05:10.630176",
        "meta_mean_motion": 14.41120633,
        "meta_eccentricity": 0.00925525,
        "meta_inclination": 74.0427,
        "meta_ra_of_asc_node": 99.8151,
        "meta_arg_of_pericenter": 178.899,
        "meta_mean_anomaly": 181.2388,
        "meta_ephemeris_type": 0,
        "meta_classification_type": "U",
        "meta_norad_cat_id": 37108,
        "meta_element_set_no": 999,
        "meta_rev_at_epoch": 85357,
        "meta_bstar": 0.0020748567,
        "meta_mean_motion_dot": 7.015e-05,
        "meta_mean_motion_ddot": 0,
        "tle_line1": "1 37108U 93036BGE 25336.33692859  .00007015  00000+0  20749-2 0  9990",
        "tle_line2": "2 37108  74.0427  99.8151 0092552 178.8990 181.2388 14.41120633853577"
      },
      "geometry": {
        "type": "Point",
        "coordinates": [
          -130.80780517574007,
          67.90196850388378
        ]
      }
    },
    {
      "type": "Feature",
      "properties": {
        "norad_id": 37126,
        "name": "COSMOS 2251 DEB",
        "group": "cosmos-2251-debris",
        "lat": -68.07874657089722,
        "lon": -125.58427057829091,
        "alt_km": 572.0381019299393,
        "timestamp": "2025-12-05T11:32:56.414763+00:00",
        "meta_object_name": "COSMOS 2251 DEB",
        "meta_object_id": "1993-036BGY",
        "meta_epoch": "2025-11-27T19:49:48.379296",
        "meta_mean_motion": 14.7298682,
        "meta_eccentricity": 0.01235898,
        "meta_inclination": 73.9551,
        "meta_ra_of_asc_node": 23.7462,
        "meta_arg_of_pericenter": 265.0836,
        "meta_mean_anomaly": 93.6217,
        "meta_ephemeris_type": 0,
        "meta_classification_type": "U",
        "meta_norad_cat_id": 37126,
        "meta_element_set_no": 999,
        "meta_rev_at_epoch": 7879,
        "meta_bstar": 0.00028630481,
        "meta_mean_motion_dot": 2.036e-05,
        "meta_mean_motion_ddot": 0,
        "tle_line1": "1 37126U 93036BGY 25331.82625439  .00002036  00000+0  28630-3 0  9995",
        "tle_line2": "2 37126  73.9551  23.7462 0123589 265.0836  93.6217 14.72986820 78799"
      },
      "geometry": {
        "type": "Point",
        "coordinates": [
          -125.58427057829091,
          -68.07874657089722
        ]
      }
    },
    {
      "type": "Feature",
      "properties": {
        "norad_id": 37132,
        "name": "COSMOS 2251 DEB",
        "group": "cosmos-2251-debris",
        "lat": -5.644995228821265,
        "lon": 69.9452678953086,
        "alt_km": 661.2602677650984,
        "timestamp": "2025-12-05T11:32:56.414773+00:00",
        "meta_object_name": "COSMOS 2251 DEB",
        "meta_object_id": "1993-036BHE",
        "meta_epoch": "2025-11-29T01:57:55.161216",
        "meta_mean_motion": 14.77491911,
        "meta_eccentricity": 0.00393056,
        "meta_inclination": 74.0019,
        "meta_ra_of_asc_node": 260.8973,
        "meta_arg_of_pericenter": 60.0895,
        "meta_mean_anomaly": 300.4174,
        "meta_ephemeris_type": 0,
        "meta_classification_type": "U",
        "meta_norad_cat_id": 37132,
        "meta_element_set_no": 999,
        "meta_rev_at_epoch": 62214,
        "meta_bstar": 0.0012599445,
        "meta_mean_motion_dot": 9.078e-05,
        "meta_mean_motion_ddot": 0,
        "tle_line1": "1 37132U 93036BHE 25333.08188844  .00009078  00000+0  12599-2 0  9995",
        "tle_line2": "2 37132  74.0019 260.8973 0039305  60.0895 300.4174 14.77491911622140"
      },
      "geometry": {
        "type": "Point",
        "coordinates": [
          69.9452678953086,
          -5.644995228821265
        ]
      }
    },
    {
      "type": "Feature",
      "properties": {
        "norad_id": 37270,
        "name": "COSMOS 2251 DEB",
        "group": "cosmos-2251-debris",
        "lat": -2.0949866939643402,
        "lon": 168.3422301511533,
        "alt_km": 1335.1827595193927,
        "timestamp": "2025-12-05T11:32:56.414784+00:00",
        "meta_object_name": "COSMOS 2251 DEB",
        "meta_object_id": "1993-036BHJ",
        "meta_epoch": "2025-12-03T02:09:07.651296",
        "meta_mean_motion": 13.5964515,
        "meta_eccentricity": 0.03986272,
        "meta_inclination": 73.9369,
        "meta_ra_of_asc_node": 351.6378,
        "meta_arg_of_pericenter": 5.2253,
        "meta_mean_anomaly": 355.2829,
        "meta_ephemeris_type": 0,
        "meta_classification_type": "U",
        "meta_norad_cat_id": 37270,
        "meta_element_set_no": 999,
        "meta_rev_at_epoch": 76938,
        "meta_bstar": 0.0042938576,
        "meta_mean_motion_dot": 5.363e-05,
        "meta_mean_motion_ddot": 0,
        "tle_line1": "1 37270U 93036BHJ 25337.08967189  .00005363  00000+0  42939-2 0  9993",
        "tle_line2": "2 37270  73.9369 351.6378 0398627   5.2253 355.2829 13.59645150769389"
      },
      "geometry": {
        "type": "Point",
        "coordinates": [
          168.3422301511533,
          -2.0949866939643402
        ]
      }
    }
  ]
}